{"fetched_at":"2026-03-30T06:02:59Z","count":15439,"tles":[{"name":"STARLINK-11364 [DTC]","line1":"1 61543U 24184M   26087.84800598 -.00000292  00000+0  24500-5 0  9992","line2":"2 61543  53.1597 142.0172 0001253  74.6143 285.5013 15.69709081 83421","category":"Starlink"}]}